{"type": "FeatureCollection", "features": [ {"type": "Feature", "properties": {"norad_id": 41175, "name": "GSAT0208 (GALILEO 11)", "group": "galileo", "lat": 25.580062403407386, "lon": -92.80836968477429, "alt_km": 23223.89306767127, "timestamp": "2025-12-17T15:50:10.042567+00:00", "meta": {"OBJECT_NAME": "GSAT0208 (GALILEO 11)", "OBJECT_ID": "2015-079B", "EPOCH": "2025-12-12T17:24:26.771040", "MEAN_MOTION": 1.70474307, "ECCENTRICITY": 0.00018806, "INCLINATION": 55.7111, "RA_OF_ASC_NODE": 106.3784, "ARG_OF_PERICENTER": 358.3144, "MEAN_ANOMALY": 1.6545, "EPHEMERIS_TYPE": 0, "CLASSIFICATION_TYPE": "U", "NORAD_CAT_ID": 41175, "ELEMENT_SET_NO": 999, "REV_AT_EPOCH": 6201, "BSTAR": 0, "MEAN_MOTION_DOT": 4e-08, "MEAN_MOTION_DDOT": 0}, "tle": {"line1": "1 41175U 15079B   25346.72530985  .00000004  00000+0  00000+0 0  9991", "line2": "2 41175  55.7111 106.3784 0001880 358.3144   1.6545  1.70474307 62017"}}, "geometry": {"type": "Point", "coordinates": [-92.80836968477429, 25.580062403407386]}}, {"type": "Feature", "properties": {"norad_id": 41549, "name": "GSAT0211 (GALILEO 14)", "group": "galileo", "lat": 51.44255305185188, "lon": -72.44857683522734, "alt_km": 23209.421019814938, "timestamp": "2025-12-17T15:50:10.042579+00:00", "meta": {"OBJECT_NAME": "GSAT0211 (GALILEO 14)", "OBJECT_ID": "2016-030A", "EPOCH": "2025-12-14T00:32:28.498848", "MEAN_MOTION": 1.70473201, "ECCENTRICITY": 0.000407, "INCLINATION": 55.1518, "RA_OF_ASC_NODE": 226.7881, "ARG_OF_PERICENTER": 16.5595, "MEAN_ANOMALY": 343.5367, "EPHEMERIS_TYPE": 0, "CLASSIFICATION_TYPE": "U", "NORAD_CAT_ID": 41549, "ELEMENT_SET_NO": 999, "REV_AT_EPOCH": 5951, "BSTAR": 0, "MEAN_MOTION_DOT": 2.8e-07, "MEAN_MOTION_DDOT": 0}, "tle": {"line1": "1 41549U 16030A   25348.02255207  .00000028  00000+0  00000+0 0  9996", "line2": "2 41549  55.1518 226.7881 0004070  16.5595 343.5367  1.70473201 59512"}}, "geometry": {"type": "Point", "coordinates": [-72.44857683522734, 51.44255305185188]}}, {"type": "Feature", "properties": {"norad_id": 41550, "name": "GSAT0210 (GALILEO 13)", "group": "galileo", "lat": -54.92361302821069, "lon": 144.21772936027347, "alt_km": 23225.88394446076, "timestamp": "2025-12-17T15:50:10.042590+00:00", "meta": {"OBJECT_NAME": "GSAT0210 (GALILEO 13)", "OBJECT_ID": "2016-030B", "EPOCH": "2025-12-14T06:43:07.791456", "MEAN_MOTION": 1.70473679, "ECCENTRICITY": 9.538e-05, "INCLINATION": 55.1512, "RA_OF_ASC_NODE": 226.7791, "ARG_OF_PERICENTER": 236.3511, "MEAN_ANOMALY": 123.7237, "EPHEMERIS_TYPE": 0, "CLASSIFICATION_TYPE": "U", "NORAD_CAT_ID": 41550, "ELEMENT_SET_NO": 999, "REV_AT_EPOCH": 5951, "BSTAR": 0, "MEAN_MOTION_DOT": 3e-07, "MEAN_MOTION_DDOT": 0}, "tle": {"line1": "1 41550U 16030B   25348.27995129  .00000030  00000+0  00000+0 0  9992", "line2": "2 41550  55.1512 226.7791 0000953 236.3511 123.7237  1.70473679 59517"}}, "geometry": {"type": "Point", "coordinates": [144.21772936027347, -54.92361302821069]}}, {"type": "Feature", "properties": {"norad_id": 41859, "name": "GSAT0207 (GALILEO 15)", "group": "galileo", "lat": 53.137988132638796, "lon": -140.8474751447928, "alt_km": 23221.146266789554, "timestamp": "2025-12-17T15:50:10.042601+00:00", "meta": {"OBJECT_NAME": "GSAT0207 (GALILEO 15)", "OBJECT_ID": "2016-069A", "EPOCH": "2025-12-13T09:14:27.730752", "MEAN_MOTION": 1.70474447, "ECCENTRICITY": 0.00022423, "INCLINATION": 55.3826, "RA_OF_ASC_NODE": 106.2323, "ARG_OF_PERICENTER": 321.9482, "MEAN_ANOMALY": 38.0041, "EPHEMERIS_TYPE": 0, "CLASSIFICATION_TYPE": "U", "NORAD_CAT_ID": 41859, "ELEMENT_SET_NO": 999, "REV_AT_EPOCH": 5623, "BSTAR": 0, "MEAN_MOTION_DOT": 0, "MEAN_MOTION_DDOT": 0}, "tle": {"line1": "1 41859U 16069A   25347.38504318  .00000000  00000+0  00000+0 0  9990", "line2": "2 41859  55.3826 106.2323 0002242 321.9482  38.0041  1.70474447 56234"}}, "geometry": {"type": "Point", "coordinates": [-140.8474751447928, 53.137988132638796]}}, {"type": "Feature", "properties": {"norad_id": 41860, "name": "GSAT0212 (GALILEO 16)", "group": "galileo", "lat": -11.023251559343668, "lon": -66.17800488450865, "alt_km": 23229.91569181802, "timestamp": "2025-12-17T15:50:10.042613+00:00", "meta": {"OBJECT_NAME": "GSAT0212 (GALILEO 16)", "OBJECT_ID": "2016-069B", "EPOCH": "2025-12-15T14:02:25.791936", "MEAN_MOTION": 1.70474669, "ECCENTRICITY": 0.00021144, "INCLINATION": 55.3815, "RA_OF_ASC_NODE": 106.1668, "ARG_OF_PERICENTER": 24.9623, "MEAN_ANOMALY": 335.0097, "EPHEMERIS_TYPE": 0, "CLASSIFICATION_TYPE": "U", "NORAD_CAT_ID": 41860, "ELEMENT_SET_NO": 999, "REV_AT_EPOCH": 5652, "BSTAR": 0, "MEAN_MOTION_DOT": -8e-08, "MEAN_MOTION_DDOT": 0}, "tle": {"line1": "1 41860U 16069B   25349.58502074 -.00000008  00000+0  00000+0 0  9992", "line2": "2 41860  55.3815 106.1668 0002114  24.9623 335.0097  1.70474669 56529"}}, "geometry": {"type": "Point", "coordinates": [-66.17800488450865, -11.023251559343668]}}, {"type": "Feature", "properties": {"norad_id": 41861, "name": "GSAT0213 (GALILEO 17)", "group": "galileo", "lat": -26.022734714055925, "lon": 86.42094778632949, "alt_km": 23220.19246431669, "timestamp": "2025-12-17T15:50:10.042625+00:00", "meta": {"OBJECT_NAME": "GSAT0213 (GALILEO 17)", "OBJECT_ID": "2016-069C", "EPOCH": "2025-12-16T12:56:22.787232", "MEAN_MOTION": 1.70474953, "ECCENTRICITY": 0.00025393, "INCLINATION": 55.3843, "RA_OF_ASC_NODE": 106.1481, "ARG_OF_PERICENTER": 282.5474, "MEAN_ANOMALY": 77.384, "EPHEMERIS_TYPE": 0, "CLASSIFICATION_TYPE": "U", "NORAD_CAT_ID": 41861, "ELEMENT_SET_NO": 999, "REV_AT_EPOCH": 5640, "BSTAR": 0, "MEAN_MOTION_DOT": -9e-08, "MEAN_MOTION_DDOT": 0}, "tle": {"line1": "1 41861U 16069C   25350.53915263 -.00000009  00000+0  00000+0 0  9999", "line2": "2 41861  55.3843 106.1481 0002539 282.5474  77.3840  1.70474953 56406"}}, "geometry": {"type": "Point", "coordinates": [86.42094778632949, -26.022734714055925]}}, {"type": "Feature", "properties": {"norad_id": 41862, "name": "GSAT0214 (GALILEO 18)", "group": "galileo", "lat": -44.38752036889858, "lon": -31.418643218868212, "alt_km": 23224.659668093795, "timestamp": "2025-12-17T15:50:10.042636+00:00", "meta": {"OBJECT_NAME": "GSAT0214 (GALILEO 18)", "OBJECT_ID": "2016-069D", "EPOCH": "2025-12-14T22:12:36.299232", "MEAN_MOTION": 1.70474813, "ECCENTRICITY": 0.00014239, "INCLINATION": 55.3815, "RA_OF_ASC_NODE": 106.1855, "ARG_OF_PERICENTER": 290.4821, "MEAN_ANOMALY": 69.4663, "EPHEMERIS_TYPE": 0, "CLASSIFICATION_TYPE": "U", "NORAD_CAT_ID": 41862, "ELEMENT_SET_NO": 999, "REV_AT_EPOCH": 5650, "BSTAR": 0, "MEAN_MOTION_DOT": -6e-08, "MEAN_MOTION_DDOT": 0}, "tle": {"line1": "1 41862U 16069D   25348.92542013 -.00000006  00000+0  00000+0 0  9996", "line2": "2 41862  55.3815 106.1855 0001423 290.4821  69.4663  1.70474813 56507"}}, "geometry": {"type": "Point", "coordinates": [-31.418643218868212, -44.38752036889858]}}, {"type": "Feature", "properties": {"norad_id": 43055, "name": "GSAT0215 (GALILEO 19)", "group": "galileo", "lat": -46.80704228442442, "lon": 178.60112591727807, "alt_km": 23225.29192479796, "timestamp": "2025-12-17T15:50:10.042647+00:00", "meta": {"OBJECT_NAME": "GSAT0215 (GALILEO 19)", "OBJECT_ID": "2017-079A", "EPOCH": "2025-12-11T21:30:24.060384", "MEAN_MOTION": 1.704739, "ECCENTRICITY": 0.00012658, "INCLINATION": 55.1303, "RA_OF_ASC_NODE": 226.661, "ARG_OF_PERICENTER": 350.6161, "MEAN_ANOMALY": 9.46, "EPHEMERIS_TYPE": 0, "CLASSIFICATION_TYPE": "U", "NORAD_CAT_ID": 43055, "ELEMENT_SET_NO": 999, "REV_AT_EPOCH": 4979, "BSTAR": 0, "MEAN_MOTION_DOT": 1.3e-07, "MEAN_MOTION_DDOT": 0}, "tle": {"line1": "1 43055U 17079A   25345.89611181  .00000013  00000+0  00000+0 0  9997", "line2": "2 43055  55.1303 226.6610 0001265 350.6161   9.4600  1.70473900 49794"}}, "geometry": {"type": "Point", "coordinates": [178.60112591727807, -46.80704228442442]}}, {"type": "Feature", "properties": {"norad_id": 43056, "name": "GSAT0216 (GALILEO 20)", "group": "galileo", "lat": 46.09863746208688, "lon": 0.13048199433623267, "alt_km": 23223.197309047697, "timestamp": "2025-12-17T15:50:10.042658+00:00", "meta": {"OBJECT_NAME": "GSAT0216 (GALILEO 20)", "OBJECT_ID": "2017-079B", "EPOCH": "2025-12-16T21:07:19.515072", "MEAN_MOTION": 1.70474167, "ECCENTRICITY": 0.00024195, "INCLINATION": 55.129, "RA_OF_ASC_NODE": 226.5236, "ARG_OF_PERICENTER": 322.2527, "MEAN_ANOMALY": 37.829, "EPHEMERIS_TYPE": 0, "CLASSIFICATION_TYPE": "U", "NORAD_CAT_ID": 43056, "ELEMENT_SET_NO": 999, "REV_AT_EPOCH": 4989, "BSTAR": 0, "MEAN_MOTION_DOT": 5.3e-07, "MEAN_MOTION_DDOT": 0}, "tle": {"line1": "1 43056U 17079B   25350.88008698  .00000053  00000+0  00000+0 0  9990", "line2": "2 43056  55.1290 226.5236 0002419 322.2527  37.8290  1.70474167 49893"}}, "geometry": {"type": "Point", "coordinates": [0.13048199433623267, 46.09863746208688]}}, {"type": "Feature", "properties": {"norad_id": 43057, "name": "GSAT0217 (GALILEO 21)", "group": "galileo", "lat": -13.814244277160553, "lon": -143.35399312855375, "alt_km": 23215.94004063522, "timestamp": "2025-12-17T15:50:10.042685+00:00", "meta": {"OBJECT_NAME": "GSAT0217 (GALILEO 21)", "OBJECT_ID": "2017-079C", "EPOCH": "2025-12-16T12:20:28.313376", "MEAN_MOTION": 1.70474073, "ECCENTRICITY": 0.00027918, "INCLINATION": 55.1271, "RA_OF_ASC_NODE": 226.5317, "ARG_OF_PERICENTER": 347.0782, "MEAN_ANOMALY": 13.0112, "EPHEMERIS_TYPE": 0, "CLASSIFICATION_TYPE": "U", "NORAD_CAT_ID": 43057, "ELEMENT_SET_NO": 999, "REV_AT_EPOCH": 4987, "BSTAR": 0, "MEAN_MOTION_DOT": 5e-07, "MEAN_MOTION_DDOT": 0}, "tle": {"line1": "1 43057U 17079C   25350.51421659  .00000050  00000+0  00000+0 0  9994", "line2": "2 43057  55.1271 226.5317 0002791 347.0782  13.0112  1.70474073 49877"}}, "geometry": {"type": "Point", "coordinates": [-143.35399312855375, -13.814244277160553]}}]}